GLOBALSTAR M023 [+]     
1 25621U 99004A   23295.74437278 -.00000071  00000+0  18345-3 0  9993
2 25621  52.0096  90.8293 0009144 227.1563 146.3907 12.62443451139516
GLOBALSTAR M040 [-]     
1 25622U 99004B   23295.72448520 -.00000083  00000+0  11324-3 0  9997
2 25622  51.9902  94.1644 0001369 118.9708 254.8351 12.61957800139062
GLOBALSTAR M036 [-]     
1 25623U 99004C   23295.75240390 -.00000048  00000+0  51223-3 0  9999
2 25623  51.9998  30.7721 0010433 340.7378 189.7606 11.86554495107344
GLOBALSTAR M038 [-]     
1 25624U 99004D   23295.91942132 -.00000067  00000+0  23277-3 0  9990
2 25624  52.0002   8.8479 0001557 221.1391 310.7231 12.32486289127948
GLOBALSTAR M022 [-]     
1 25649U 99012A   23296.29063373 -.00000040  00000+0  56821-3 0  9991
2 25649  52.0012 129.8076 0003554  66.0615 104.8531 12.02471455103920
GLOBALSTAR M041 [-]     
1 25650U 99012B   23296.48007600 -.00000106  00000+0 -26723-3 0  9997
2 25650  52.0047 352.3704 0002040 200.8382 159.2371 11.96644716106371
GLOBALSTAR M046 [-]     
1 25651U 99012C   23296.20425421 -.00000028  00000+0  67088-3 0  9994
2 25651  52.0029 102.1819 0003048 118.4414  51.7951 12.09377263111055
GLOBALSTAR M037 [+]     
1 25652U 99012D   23296.09297598 -.00000079  00000+0  13827-3 0  9992
2 25652  52.0000 220.6213 0001478 316.2481  57.2428 12.62386569135151
